NORAD_CAT_ID,OBJECT_NAME,OBJECT_TYPE,EPOCH,MEAN_MOTION,ECCENTRICITY,INCLINATION,RA_OF_ASC_NODE,ARG_OF_PERICENTER,MEAN_ANOMALY,BSTAR,MEAN_MOTION_DOT,MEAN_MOTION_DDOT,TLE_LINE0,TLE_LINE1,TLE_LINE2,SEMIMAJOR_AXIS,PERIOD,APOGEE,PERIGEE,DECAYED
53244.0,STARLINK-4125,PAYLOAD,2024-04-12 06:04:39,15.0884127,0.0001444,53.2171,90.6211,97.1366,262.979,8.7476e-05,1.105e-05,0.0,0 STARLINK-4125,1 53244U 22086C   24103.25323923  .00001105  00000-0  87476-4 0  9998,2 53244  53.2171  90.6211 0001444  97.1366 262.9790 15.08841270 96100,6917.877,95.437,540.74,538.743,0.0
53244.0,STARLINK-4125,PAYLOAD,2024-04-13 07:30:50,15.08840078,0.0001469,53.2176,85.863,97.3326,262.7834,0.00010136,1.326e-05,0.0,0 STARLINK-4125,1 53244U 22086C   24104.31308238  .00001326  00000-0  10136-3 0  9991,2 53244  53.2176  85.8630 0001469  97.3326 262.7834 15.08840078 95764,6917.88,95.438,540.761,538.729,0.0
53244.0,STARLINK-4125,PAYLOAD,2024-04-14 04:10:51,15.08835701,0.0001587,53.2184,81.9985,97.9214,262.1958,1.7491e-05,-1e-07,0.0,0 STARLINK-4125,1 53244U 22086C   24105.17421023 -.00000010  00000-0  17491-4 0  9996,2 53244  53.2184  81.9985 0001587  97.9214 262.1958 15.08835701 95898,6917.894,95.438,540.856,538.661,0.0
53244.0,STARLINK-4125,PAYLOAD,2024-04-14 05:46:14,15.08836752,0.0001562,53.2184,81.7008,92.7795,267.3376,2.1578e-05,5.5e-07,0.0,0 STARLINK-4125,1 53244U 22086C   24105.24044971  .00000055  00000-0  21578-4 0  9996,2 53244  53.2184  81.7008 0001562  92.7795 267.3376 15.08836752 96408,6917.89,95.438,540.836,538.675,0.0
53244.0,STARLINK-4125,PAYLOAD,2024-04-15 05:37:01,15.08843662,0.0001614,53.2185,77.239,79.4271,280.6903,0.00010558,1.393e-05,0.0,0 STARLINK-4125,1 53244U 22086C   24106.23404589  .00001393  00000-0  10558-3 0  9992,2 53244  53.2185  77.2390 0001614  79.4271 280.6903 15.08843662 96055,6917.869,95.437,540.851,538.618,0.0
53244.0,STARLINK-4125,PAYLOAD,2024-04-15 21:30:53,15.08840461,0.0001715,53.2183,74.2688,71.1903,288.9275,0.00011332,1.516e-05,0.0,0 STARLINK-4125,1 53244U 22086C   24106.89644987  .00001516  00000-0  11332-3 0  9990,2 53244  53.2183  74.2688 0001715  71.1903 288.9275 15.08840461 96656,6917.879,95.438,540.93,538.558,0.0
53244.0,STARLINK-4125,PAYLOAD,2024-04-16 03:52:25,15.08838936,0.0001756,53.218,73.0775,76.1441,283.9746,0.0001341,1.847e-05,0.0,0 STARLINK-4125,1 53244U 22086C   24107.16141067  .00001847  00000-0  13410-3 0  9998,2 53244  53.2180  73.0775 0001756  76.1441 283.9746 15.08838936 96195,6917.884,95.438,540.963,538.534,0.0
53244.0,STARLINK-4125,PAYLOAD,2024-04-16 07:03:11,15.08851703,0.0001561,53.2184,72.4795,80.8406,279.2763,0.0001938,2.799e-05,0.0,0 STARLINK-4125,1 53244U 22086C   24107.29388115  .00002799  00000-0  19380-3 0  9998,2 53244  53.2184  72.4795 0001561  80.8406 279.2763 15.08851703 96218,6917.845,95.437,540.789,538.63,0.0
53244.0,STARLINK-4125,PAYLOAD,2024-04-16 15:00:07,15.08850143,0.0001609,53.2184,70.9931,80.4037,279.7137,0.00016004,2.261e-05,0.0,0 STARLINK-4125,1 53244U 22086C   24107.62508236  .00002261  00000-0  16004-3 0  9997,2 53244  53.2184  70.9931 0001609  80.4037 279.7137 15.08850143 96769,6917.849,95.437,540.827,538.601,0.0
53244.0,STARLINK-4125,PAYLOAD,2024-04-17 06:53:57,15.0886455,0.0001498,53.2157,68.0221,87.2894,272.827,0.00030868,4.631e-05,0.0,0 STARLINK-4125,1 53244U 22086C   24108.28747240  .00004631  00000-0  30868-3 0  9997,2 53244  53.2157  68.0221 0001498  87.2894 272.8270 15.08864550 96861,6917.805,95.436,540.707,538.634,0.0
53244.0,STARLINK-4125,PAYLOAD,2024-04-18 03:34:00,15.0882506,0.0001312,53.2168,64.1532,88.1834,271.9308,-0.00027716,-4.694e-05,0.0,0 STARLINK-4125,1 53244U 22086C   24109.14861190 -.00004694  00000-0 -27716-3 0  9993,2 53244  53.2168  64.1532 0001312  88.1834 271.9308 15.08825060 96498,6917.926,95.438,540.699,538.883,0.0
53244.0,STARLINK-4125,PAYLOAD,2024-04-18 06:44:46,15.08827239,0.0001311,53.217,63.5581,88.98,271.1342,-0.00018129,-3.171e-05,0.0,0 STARLINK-4125,1 53244U 22086C   24109.28109503 -.00003171  00000-0 -18129-3 0  9998,2 53244  53.2170  63.5581 0001311  88.9800 271.1342 15.08827239 97017,6917.919,95.438,540.691,538.877,0.0
53244.0,STARLINK-4125,PAYLOAD,2024-04-19 03:24:46,15.08847623,0.0001185,53.2176,59.6933,113.664,246.4477,0.00054439,8.388e-05,0.0,0 STARLINK-4125,1 53244U 22086C   24110.14221045  .00008388  00000-0  54439-3 0  9998,2 53244  53.2176  59.6933 0001185 113.6640 246.4477 15.08847623 96648,6917.857,95.437,540.542,538.902,0.0
53244.0,STARLINK-4125,PAYLOAD,2024-04-19 06:35:33,15.08853432,0.0001052,53.2176,59.0971,106.4153,253.6955,0.00097235,0.00015226,0.0,0 STARLINK-4125,1 53244U 22086C   24110.27469156  .00015226  00000-0  97235-3 0  9999,2 53244  53.2176  59.0971 0001052 106.4153 253.6955 15.08853432 97160,6917.839,95.437,540.432,538.977,0.0
53244.0,STARLINK-4125,PAYLOAD,2024-04-20 03:15:33,15.08868641,0.0001127,53.218,55.2278,82.4611,277.6509,0.00077916,0.00012144,0.0,0 STARLINK-4125,1 53244U 22086C   24111.13580292  .00012144  00000-0  77916-3 0  9990,2 53244  53.2180  55.2278 0001127  82.4611 277.6509 15.08868641 97291,6917.793,95.436,540.437,538.878,0.0
53244.0,STARLINK-4125,PAYLOAD,2024-04-20 20:44:49,15.08816261,0.0001113,53.2184,51.9593,105.307,254.8045,-0.00019384,-3.369e-05,0.0,0 STARLINK-4125,1 53244U 22086C   24111.86445752 -.00003369  00000-0 -19384-3 0  9997,2 53244  53.2184  51.9593 0001113 105.3070 254.8045 15.08816261 96907,6917.953,95.439,540.588,539.048,0.0
53244.0,STARLINK-4125,PAYLOAD,2024-04-21 03:06:22,15.08804395,0.0001586,53.2188,50.7702,105.9613,254.1554,-0.00060337,-9.868e-05,0.0,0 STARLINK-4125,1 53244U 22086C   24112.12943040 -.00009868  00000-0 -60337-3 0  9994,2 53244  53.2188  50.7702 0001586 105.9613 254.1554 15.08804395 96940,6917.989,95.44,540.951,538.757,0.0
53244.0,STARLINK-4125,PAYLOAD,2024-04-21 19:00:14,15.08835449,0.0001568,53.2194,47.8011,84.0483,276.0688,0.00020839,3.03e-05,0.0,0 STARLINK-4125,1 53244U 22086C   24112.79182978  .00003030  00000-0  20839-3 0  9998,2 53244  53.2194  47.8011 0001568  84.0483 276.0688 15.08835449 97046,6917.894,95.438,540.844,538.675,0.0
53244.0,STARLINK-4125,PAYLOAD,2024-04-22 02:57:08,15.08870937,0.0001559,53.2182,46.3101,84.6421,275.475,0.0012184,0.00019172,0.0,0 STARLINK-4125,1 53244U 22086C   24113.12301822  .00019172  00000-0  12184-2 0  9994,2 53244  53.2182  46.3101 0001559  84.6421 275.4750 15.08870937 97094,6917.786,95.436,540.729,538.572,0.0
53244.0,STARLINK-4125,PAYLOAD,2024-04-22 06:07:54,15.08877663,0.0001608,53.2184,45.7158,94.9767,265.1408,0.0013183,0.00020777,0.0,0 STARLINK-4125,1 53244U 22086C   24113.25549459  .00020777  00000-0  13183-2 0  9991,2 53244  53.2184  45.7158 0001608  94.9767 265.1408 15.08877663 97610,6917.765,95.435,540.743,538.518,0.0
53244.0,STARLINK-4125,PAYLOAD,2024-04-22 18:51:00,15.08841703,0.0002424,53.2183,43.3387,129.8373,230.2833,0.00021688,3.165e-05,0.0,0 STARLINK-4125,1 53244U 22086C   24113.78542398  .00003165  00000-0  21688-3 0  9996,2 53244  53.2183  43.3387 0002424 129.8373 230.2833 15.08841703 97199,6917.875,95.437,541.417,538.063,0.0
53244.0,STARLINK-4125,PAYLOAD,2024-04-23 04:23:18,15.08854243,0.0001483,53.2174,41.5551,113.8317,246.2831,-3.3265e-05,-8.18e-06,0.0,0 STARLINK-4125,1 53244U 22086C   24114.18285644 -.00000818  00000-0 -33265-4 0  9998,2 53244  53.2174  41.5551 0001483 113.8317 246.2831 15.08854243 97252,6917.837,95.437,540.728,538.676,0.0
53244.0,STARLINK-4125,PAYLOAD,2024-04-24 02:38:43,15.08845744,0.0002361,53.2186,37.3894,63.7466,296.3769,0.00083924,0.00013096,0.0,0 STARLINK-4125,1 53244U 22086C   24115.11022592  .00013096  00000-0  83924-3 0  9999,2 53244  53.2186  37.3894 0002361  63.7466 296.3769 15.08845744 97399,6917.863,95.437,541.361,538.095,0.0
53244.0,STARLINK-4125,PAYLOAD,2024-04-25 04:04:53,15.08850649,0.0001575,53.2166,32.6346,126.0233,234.0905,0.0010899,0.00017105,0.0,0 STARLINK-4125,1 53244U 22086C   24116.17006200  .00017105  00000-0  10899-2 0  9999,2 53244  53.2166  32.6346 0001575 126.0233 234.0905 15.08850649 97557,6917.848,95.437,540.802,538.623,0.0
53244.0,STARLINK-4125,PAYLOAD,2024-04-25 21:34:08,15.08840528,0.0001919,53.2208,29.3525,109.5707,250.5493,0.00099523,0.00015587,0.0,0 STARLINK-4125,1 53244U 22086C   24116.89870525  .00015587  00000-0  99523-3 0  9991,2 53244  53.2208  29.3525 0001919 109.5707 250.5493 15.08840528 98168,6917.879,95.438,541.071,538.416,0.0
53244.0,STARLINK-4125,PAYLOAD,2024-04-26 00:44:54,15.08841479,0.0001636,53.2198,28.7679,69.5025,290.6143,0.0012072,0.00018978,0.0,0 STARLINK-4125,1 53244U 22086C   24117.03118926  .00018978  00000-0  12072-2 0  9998,2 53244  53.2198  28.7679 0001636  69.5025 290.6143 15.08841479 97682,6917.876,95.437,540.873,538.609,0.0
53244.0,STARLINK-4125,PAYLOAD,2024-04-26 21:24:55,15.08844834,0.0001463,53.2191,24.9025,69.4786,290.6363,0.00085521,0.00013351,0.0,0 STARLINK-4125,1 53244U 22086C   24117.89230854  .00013351  00000-0  85521-3 0  9997,2 53244  53.2191  24.9025 0001463  69.4786 290.6363 15.08844834 98312,6917.866,95.437,540.743,538.719,0.0
53244.0,STARLINK-4125,PAYLOAD,2024-04-27 03:46:27,15.08867243,0.0001579,53.218,23.7135,95.2808,264.8364,0.001548,0.00024453,0.0,0 STARLINK-4125,1 53244U 22086C   24118.15726323  .00024453  00000-0  15480-2 0  9999,2 53244  53.2180  23.7135 0001579  95.2808 264.8364 15.08867243 97850,6917.797,95.436,540.754,538.57,0.0
53244.0,STARLINK-4125,PAYLOAD,2024-04-27 10:07:59,15.08863366,0.0001411,53.2175,22.5209,83.2318,276.8835,0.0007607,0.00011847,0.0,0 STARLINK-4125,1 53244U 22086C   24118.42222110  .00011847  00000-0  76070-3 0  9990,2 53244  53.2175  22.5209 0001411  83.2318 276.8835 15.08863366 97893,6917.809,95.436,540.65,538.698,0.0
53244.0,STARLINK-4125,PAYLOAD,2024-04-27 18:04:56,15.08842019,0.0002905,53.2187,21.0397,78.2183,281.9135,0.00044585,6.815e-05,0.0,0 STARLINK-4125,1 53244U 22086C   24118.75342906  .00006815  00000-0  44585-3 0  9997,2 53244  53.2187  21.0397 0002905  78.2183 281.9135 15.08842019 97949,6917.874,95.437,541.749,537.73,0.0
